TIANMU-1 22             
1 58663U 23208D   25102.14594717  .00014054  00000+0  59860-3 0  9995
2 58663  97.4208 215.0311 0005364  75.1715 285.0116 15.23068477 71551
TIANMU-1 15             
1 58700U 24004A   25102.20304724  .00011187  00000+0  50017-3 0  9995
2 58700  97.4647 285.2110 0008806  85.0811 275.1430 15.21448730 70131
TIANMU-1 16             
1 58701U 24004B   25102.18769981  .00012067  00000+0  53959-3 0  9999
2 58701  97.4580 284.7933 0009114  87.4200 272.8079 15.21423030 70135
TIANMU-1 17             
1 58702U 24004C   25102.17748061  .00011634  00000+0  52194-3 0  9994
2 58702  97.4621 285.0636 0007032  84.0622 276.1415 15.21336387 70122
TIANMU-1 18             
1 58703U 24004D   25102.15614989  .00010504  00000+0  47123-3 0  9995
2 58703  97.4638 285.1911 0007170  77.2419 282.9618 15.21361851 70123
INSAT-3DS               
1 58990U 24033A   25102.12329078 -.00000155  00000+0  00000+0 0  9995
2 58990   0.0597  87.8703 0001718 289.9516 309.2118  1.00273108  4497
METEOR-M2 4             
1 59051U 24039A   25102.18723832  .00000114  00000+0  70731-4 0  9999
2 59051  98.6441  63.4274 0006802 347.6767  12.4244 14.22356415 57996
GOES 19                 
1 60133U 24119A   25102.09210072 -.00000247  00000+0  00000+0 0  9993
2 60133   0.0570  51.6719 0000715 320.8613 145.9790  1.00273662  2983
